2026-05-16 08:41:10 | INFO | strands_evaluation.helper.logger | Logging to: log-kramabench/modes/openai_gpt-5.4-nano/search_p_results_i_plani_computei_k5_skills_off/tasks-mini-kramabench/k-2-d-2-s-2/task_1.log
2026-05-16 08:41:10 | INFO | strands_evaluation.agent_with_mode | Starting task 1: Using TLE data fetched for Starlink satellites 58214, calculate the average rate...
2026-05-16 08:41:10 | INFO | strands_evaluation.agent_with_mode | ============================================================
2026-05-16 08:41:10 | INFO | strands_evaluation.agent_with_mode | NEW TASK: gpt-5.4-nano
2026-05-16 08:41:10 | DEBUG | strands_evaluation.agent_with_mode | QUESTION: Using TLE data fetched for Starlink satellites 58214, calculate the average rate of semi-major axis decay (km/day) for the Gannon storm (May 10-13, 2024) and the preceding quiet period (May 1-4, 2024). Use earth's gravitational paremeter mu = 398600.4418 km^3/s^2, earth radius 6371.0 km, and Kepler's law as a rough estimate of the semi-major axis length. Report in a pair of numbers: (average_quiet_rate_km_day, average_storm_rate_km_day). The tle files are located in input/space-track/, with format <NORAD_ID>_storm.csv and <NORAD_ID>_quiet.csv. Write your answer as [ANSWER].
2026-05-16 08:41:10 | INFO | strands_evaluation.agent_with_mode | ============================================================
2026-05-16 08:41:10 | INFO | strands_evaluation.agent_with_mode | Ablation modes active: search_tool=preloaded search_results=ideal agent_management=ideal plan_skills=off
2026-05-16 08:41:10 | DEBUG | strands_evaluation.instrumentation.agent_plugins | Event loop initialized
2026-05-16 08:41:10 | INFO | strands_evaluation.instrumentation.agent_plugins | 
--- Turn 1 (elapsed: 0.0s) ---
2026-05-16 08:41:12 | DEBUG | strands_evaluation.instrumentation.agent_plugins | Model response #1 [stop_reason=tool_use]
2026-05-16 08:41:12 | DEBUG | strands_evaluation.instrumentation.agent_plugins | Model response #1 [role=assistant block=1 tool_use] plan_ideal({"plan_text": "1) Load 58214_quiet.csv and inspect columns (epochs and orbital elements like semi-major axis or mean motion). 2) Compute semi-major axis a per TLE epoch using mu and Kepler’s law from mean motion. 3) Filter epochs within May 1-4, 2024 and estimate daily decay rate from linear regression/slope of a vs time. 4) Repeat for 58214_storm.csv filtered to May 10-13, 2024. 5) Output (quiet_rate, storm_rate) in km/day."}) [toolUseId=call_XS2h0iFoEXckgppXbH1pgROW]
2026-05-16 08:41:12 | INFO | strands_evaluation.instrumentation.agent_plugins | Executing: plan_ideal({"plan_text": "1) Load 58214_quiet.csv and inspect columns (epochs and orbital elements like semi-major axis or mean motion). 2) Compute semi-major axis a per TLE epoch using mu and Kepler’s law from mean motion. 3) Filter epochs within May 1-4, 2024 and estimate daily decay rate from linear regression/slope of a vs time. 4) Repeat for 58214_storm.csv filtered to May 10-13, 2024. 5) Output (quiet_rate, storm_rate) in km/day."})
2026-05-16 08:41:12 | DEBUG | strands_evaluation.instrumentation.agent_plugins | Tool result: Ideal execution plan recorded.
2026-05-16 08:41:12 | INFO | strands_evaluation.instrumentation.agent_plugins | 
--- Turn 2 (elapsed: 1.7s) ---
2026-05-16 08:41:13 | DEBUG | strands_evaluation.instrumentation.agent_plugins | Model response #2 [stop_reason=tool_use]
2026-05-16 08:41:13 | DEBUG | strands_evaluation.instrumentation.agent_plugins | Model response #2 [role=assistant block=1 tool_use] peek_file({"dataset_id": "kramabench-astronomy-easy-6", "s3_uri": "datagov/kramabench-astronomy-easy-6/files/space-track/58214_quiet.csv", "max_rows": 5}) [toolUseId=call_zWhb88pae5Yz3TqbXpCxL1d3]
2026-05-16 08:41:13 | DEBUG | strands_evaluation.instrumentation.agent_plugins | Model response #2 [role=assistant block=2 tool_use] peek_file({"dataset_id": "kramabench-astronomy-easy-6", "s3_uri": "datagov/kramabench-astronomy-easy-6/files/space-track/58214_storm.csv", "max_rows": 5}) [toolUseId=call_MyxIVigOExaWzxHfZNcOqr8V]
2026-05-16 08:41:13 | INFO | strands_evaluation.instrumentation.agent_plugins | Executing: peek_file({"dataset_id": "kramabench-astronomy-easy-6", "s3_uri": "datagov/kramabench-astronomy-easy-6/files/space-track/58214_quiet.csv", "max_rows": 5})
2026-05-16 08:41:14 | DEBUG | strands_evaluation.instrumentation.agent_plugins | Tool result: {"dataset_id": "kramabench-astronomy-easy-6", "file_path": "files/space-track/58214_quiet.csv", "s3_uri": "s3://sana-kramabench/datagov/kramabench-astronomy-easy-6/files/space-track/58214_quiet.csv", "size_bytes": 5115, "family": "csv", "preview_text": "CCSDS_OMM_VERS,COMMENT,CREATION_DATE,ORIGINATOR,OBJECT_NAME,OBJECT_ID,CENTER_NAME,REF_FRAME,TIME_SYSTEM,MEAN_ELEMENT_THEORY,EPOCH,MEAN_MOTION,ECCENTRICITY,INCLINATION,RA_OF_ASC_NODE,ARG_OF_PERICENTER,MEAN_ANOMALY,EPHEMERIS_TYPE,CLASSIFICATION_TYPE,NORAD_CAT_ID,ELEMENT_SET_NO,REV_AT_EPOCH,BSTAR,MEAN_MOTION_DOT,MEAN_MOTION_DDOT,SEMIMAJOR_AXIS,PERIOD,APOAPSIS,PERIAPSIS,OBJECT_TYPE,RCS_SIZE,COUNTRY_CODE,LAUNCH_DATE,SITE,DECAY_DATE,FILE,GP_ID,TLE_LINE0,TLE_LINE1,TLE_LINE2\n\"2.0\",\"GENERATED VIA SPACE-TRACK.ORG API\",\"2024-05-01T20:24:06\",\"18 SPCS\",\"STARLINK-30805\",\"2023-170J\",\"EARTH\",\"TEME\",\"UTC\",\"SGP4\",\"2024-05-01T10:29:14.898336\",\"15.02550424\",\"0.00017220\",\"43.0038\",\"275.8684\",\"265.8547\",\"94.2099\",\"0\",\"U\",\"58214\",\"999\",\"2840\",\"0.00047506000000\",\"0.00006222\",\"0.0000000000000\",\"6937.172\",\"95.837\",\"560.232\",\"557.843\",\"PAYLOAD\",\"LARGE\",\"US\",\"2023-11-03\",\"AFETR\",\"\",\"4304190\",\"256232108\",\"0 STARLINK-30805\",\"1 58214U 23170J   24122.43697799  .00006222  00000-0  47506-3 0  9995\",\"2 58214  43.0038 275.8684 0001722 265.8547  94.2099 15.02550424 28404\"\n\"2.0\",\"GENERATED VIA SPACE-TRACK.ORG API\",\"2024-05-02T02:46:58\",\"18 SPCS\",\"STARLINK-30805\",\"2023-170J\",\"EARTH\",\"TEME\",\"UTC\",\"SGP4\",\"2024-05-01T16:52:09.772896\",\"15.02544581\",\"0.00014870\",\"43.0034\",\"274.4237\",\"269.1676\",\"90.8996\",\"0\",\"U\",\"58214\",\"999\",\"2844\",\"0.00027920000000\",\"0.00003571\",\"0.0000000000000\",\"6937.190\",\"95.837\",\"560.087\",\"558.024\",\"PAYLOAD\",\"LARGE\",\"US\",\"2023-11-03\",\"AFETR\",\"\",\"4304452\",\"256266706\",\"0 STARLINK-30805\",\"1 58214U 23170J   24122.70289089  .00003571  00000-0  27920-3 0  9996\",\"2 58214  43.0034 274.423...
2026-05-16 08:41:14 | INFO | strands_evaluation.instrumentation.agent_plugins | Executing: peek_file({"dataset_id": "kramabench-astronomy-easy-6", "s3_uri": "datagov/kramabench-astronomy-easy-6/files/space-track/58214_storm.csv", "max_rows": 5})
2026-05-16 08:41:14 | DEBUG | strands_evaluation.instrumentation.agent_plugins | Tool result: {"dataset_id": "kramabench-astronomy-easy-6", "file_path": "files/space-track/58214_storm.csv", "s3_uri": "s3://sana-kramabench/datagov/kramabench-astronomy-easy-6/files/space-track/58214_storm.csv", "size_bytes": 8029, "family": "csv", "preview_text": "CCSDS_OMM_VERS,COMMENT,CREATION_DATE,ORIGINATOR,OBJECT_NAME,OBJECT_ID,CENTER_NAME,REF_FRAME,TIME_SYSTEM,MEAN_ELEMENT_THEORY,EPOCH,MEAN_MOTION,ECCENTRICITY,INCLINATION,RA_OF_ASC_NODE,ARG_OF_PERICENTER,MEAN_ANOMALY,EPHEMERIS_TYPE,CLASSIFICATION_TYPE,NORAD_CAT_ID,ELEMENT_SET_NO,REV_AT_EPOCH,BSTAR,MEAN_MOTION_DOT,MEAN_MOTION_DDOT,SEMIMAJOR_AXIS,PERIOD,APOAPSIS,PERIAPSIS,OBJECT_TYPE,RCS_SIZE,COUNTRY_CODE,LAUNCH_DATE,SITE,DECAY_DATE,FILE,GP_ID,TLE_LINE0,TLE_LINE1,TLE_LINE2\n\"2.0\",\"GENERATED VIA SPACE-TRACK.ORG API\",\"2024-05-10T17:44:02\",\"18 SPCS\",\"STARLINK-30805\",\"2023-170J\",\"EARTH\",\"TEME\",\"UTC\",\"SGP4\",\"2024-05-10T13:03:59.806080\",\"15.02537535\",\"0.00028990\",\"43.0080\",\"226.3847\",\"278.1214\",\"81.9299\",\"0\",\"U\",\"58214\",\"999\",\"2977\",\"-0.00026920000000\",\"-0.00003839\",\"0.0000000000000\",\"6937.212\",\"95.838\",\"561.088\",\"557.066\",\"PAYLOAD\",\"LARGE\",\"US\",\"2023-11-03\",\"AFETR\",\"\",\"4312738\",\"256888979\",\"0 STARLINK-30805\",\"1 58214U 23170J   24131.54444220 -.00003839  00000-0 -26920-3 0  9996\",\"2 58214  43.0080 226.3847 0002899 278.1214  81.9299 15.02537535 29771\"\n\"2.0\",\"GENERATED VIA SPACE-TRACK.ORG API\",\"2024-05-11T02:49:57\",\"18 SPCS\",\"STARLINK-30805\",\"2023-170J\",\"EARTH\",\"TEME\",\"UTC\",\"SGP4\",\"2024-05-10T16:15:27.229536\",\"15.02540313\",\"0.00014720\",\"43.0037\",\"225.6614\",\"276.8779\",\"83.1896\",\"0\",\"U\",\"58214\",\"999\",\"2979\",\"-0.00009585500000\",\"-0.00001498\",\"0.0000000000000\",\"6937.203\",\"95.838\",\"560.089\",\"558.047\",\"PAYLOAD\",\"LARGE\",\"US\",\"2023-11-03\",\"AFETR\",\"\",\"4313042\",\"256923769\",\"0 STARLINK-30805\",\"1 58214U 23170J   24131.67739849 -.00001498  00000-0 -95855-4 0  9997\",\"2 58214  43.0037 225...
2026-05-16 08:41:14 | INFO | strands_evaluation.instrumentation.agent_plugins | 
--- Turn 3 (elapsed: 3.8s) ---
2026-05-16 08:41:18 | DEBUG | strands_evaluation.instrumentation.agent_plugins | Model response #3 [stop_reason=tool_use]
